[ {"name": "STARLINK-31131", "line1": "1 58673U 23211G   26133.19830473 -.00000723  00000+0 -16768-4 0  9993", "line2": "2 58673  43.0032  70.1727 0000603 271.3019  88.7763 15.27576006133734"}, {"name": "STARLINK-31124", "line1": "1 58674U 23211H   26133.20073082  .00001342  00000+0  58270-4 0  9991", "line2": "2 58674  42.9997  80.7054 0001137 262.5453  97.5269 15.27578448132336"}, {"name": "STARLINK-31126", "line1": "1 58675U 23211J   26133.11992457  .00000282  00000+0  19786-4 0  9999", "line2": "2 58675  43.0036  80.9509 0001296 263.8074  96.2630 15.27574315132325"}, {"name": "STARLINK-31066", "line1": "1 58676U 23211K   26132.98268383 -.00003895  00000+0 -13202-3 0  9999", "line2": "2 58676  43.0052 227.9644 0003344 254.4148 105.6335 15.27586633131862"}, {"name": "STARLINK-31058", "line1": "1 58677U 23211L   26133.13791653  .00001713  00000+0  71764-4 0  9992", "line2": "2 58677  43.0004  81.0943 0000954 262.1156  97.9587 15.27576714132323"}, {"name": "STARLINK-31125", "line1": "1 58678U 23211M   26133.22642928 -.00000047  00000+0  78034-5 0  9991", "line2": "2 58678  43.0024  80.8979 0000906 267.3439  92.7309 15.27575894133504"}, {"name": "STARLINK-31110", "line1": "1 58679U 23211N   26133.20715577  .00003397  00000+0  13289-3 0  9990", "line2": "2 58679  43.0012  80.7522 0000660 263.1002  96.9775 15.27587496132336"}, {"name": "STARLINK-31112", "line1": "1 58680U 23211P   26133.21486390  .00000441  00000+0  25533-4 0  9994", "line2": "2 58680  42.9996  80.8105 0001139 271.6831  88.3890 15.27577704133516"}, {"name": "STARLINK-31147", "line1": "1 58681U 23211Q   26133.23026616  .00003105  00000+0  12226-3 0  9992", "line2": "2 58681  43.0038  80.9299 0000856 262.6789  97.3965 15.27595166132332"}, {"name": "STARLINK-31144", "line1": "1 58682U 23211R   26133.25002315  .00049014  00000+0  17808-2 0  9994", "line2": "2 58682  43.0024  80.2534 0001367 265.4168  76.8242 15.27543655  5855"}, {"name": "STARLINK-31095", "line1": "1 58683U 23211S   26132.91619917  .00000581  00000+0  30632-4 0  9997", "line2": "2 58683  43.0042  82.8666 0001360 280.4911  79.5788 15.27580582133550"}, {"name": "STARLINK-31107", "line1": "1 58684U 23211T   26133.18417456 -.00000283  00000+0 -76407-6 0  9995", "line2": "2 58684  43.0054  81.4361 0001351 273.1502  86.9195 15.27575249132328"}, {"name": "STARLINK-31121", "line1": "1 58685U 23211U   26133.19174673 -.00000527  00000+0 -96517-5 0  9992", "line2": "2 58685  43.0032  80.6320 0000847 264.3116  95.7639 15.27569271132333"}, {"name": "STARLINK-31137", "line1": "1 58686U 23211V   26133.16232680 -.00000773  00000+0 -18578-4 0  9996", "line2": "2 58686  43.0032  81.2758 0000712 267.4084  92.6686 15.27575057132321"}, {"name": "STARLINK-31106", "line1": "1 58689U 23211Y   26133.21999163  .00009053  00000+0  33784-3 0  9994", "line2": "2 58689  43.0026  80.8484 0000652 260.2736  99.8042 15.27606632132336"}, {"name": "STARLINK-11072 [DTC]", "line1": "1 58705U 24002A   26133.22649679 -.00000119  00000+0  38741-5 0  9992", "line2": "2 58705  53.1585 315.8749 0000820  93.8283 266.2828 15.69707719136572"}, {"name": "STARLINK-11075 [DTC]", "line1": "1 58706U 24002B   26133.20596330  .00020687  00000+0  15287-3 0  9995", "line2": "2 58706  53.1562 315.7457 0000811 295.1014  64.9921 15.72976963136572"}, {"name": "STARLINK-11077 [DTC]", "line1": "1 58707U 24002C   26132.79061970  .00000761  00000+0  11138-4 0  9999", "line2": "2 58707  53.1569 318.1185 0000782  99.4204 260.6902 15.69710813136501"}, {"name": "STARLINK-11079 [DTC]", "line1": "1 58708U 24002D   26132.77590843 -.00000673  00000+0 -69504-6 0  9990", "line2": "2 58708  53.1597 318.0331 0001047  57.6969 302.4150 15.69704472136508"}, {"name": "STARLINK-11076 [DTC]", "line1": "1 58709U 24002E   26133.21668843 -.00000251  00000+0  27859-5 0  9994", "line2": "2 58709  53.1600 315.8060 0001079  73.6994 286.4142 15.69710041136577"}, {"name": "STARLINK-11078 [DTC]", "line1": "1 58710U 24002F   26133.21178184 -.00001034  00000+0 -36772-5 0  9995", "line2": "2 58710  53.1581 315.7747 0000962  67.8112 292.3008 15.69709839136575"}, {"name": "STARLINK-31031", "line1": "1 58711U 24002G   26133.15582630 -.00000881  00000+0 -17647-4 0  9992", "line2": "2 58711  53.1634 290.6266 0000894  89.6142 270.4961 15.30187818131880"}, {"name": "STARLINK-31029", "line1": "1 58712U 24002H   26133.12838177 -.00000161  00000+0  66752-5 0  9992", "line2": "2 58712  53.1605 290.4498 0001008  70.7144 289.3966 15.30198063131883"}, {"name": "STARLINK-30973", "line1": "1 58713U 24002J   26133.13469273  .00001198  00000+0  52544-4 0  9994", "line2": "2 58713  53.1569 290.4930 0000473 154.6380 205.4644 15.30208866131888"}, {"name": "STARLINK-31100", "line1": "1 58714U 24002K   26133.13788877  .00001048  00000+0  47530-4 0  9992", "line2": "2 58714  53.1623 290.5086 0001254  96.4375 263.6769 15.30179334131889"}, {"name": "STARLINK-31102", "line1": "1 58715U 24002L   26133.16215702 -.00000695  00000+0 -11341-4 0  9998", "line2": "2 58715  53.1618 290.6543 0001178  90.6049 269.5087 15.30185227131888"}, {"name": "STARLINK-31098", "line1": "1 58716U 24002M   26133.13999387 -.00000278  00000+0  27419-5 0  9994", "line2": "2 58716  53.1613 290.5201 0001033  95.0891 265.0228 15.30190147131883"}, {"name": "STARLINK-31093", "line1": "1 58717U 24002N   26133.14738633 -.00000458  00000+0 -33531-5 0  9994", "line2": "2 58717  53.1618 290.5788 0001004 102.2162 257.8951 15.30184464131886"}, {"name": "STARLINK-31097", "line1": "1 58718U 24002P   26133.14421371 -.00000405  00000+0 -15470-5 0  9997", "line2": "2 58718  53.1608 290.5449 0001021  96.7191 263.3926 15.30189491131887"}, {"name": "STARLINK-31051", "line1": "1 58719U 24002Q   26132.43102683 -.00000104  00000+0  86205-5 0  9990", "line2": "2 58719  53.1611 293.9127 0001011  84.2047 275.9069 15.30191163131777"}, {"name": "STARLINK-31027", "line1": "1 58720U 24002R   26133.09324645  .00059052  00000+0  57038-3 0  9994", "line2": "2 58720  53.1436 274.4065 0007934 214.1687 145.8819 15.65878209132100"}, {"name": "STARLINK-30972", "line1": "1 58721U 24002S   26133.13577165 -.00000993  00000+0 -21406-4 0  9990", "line2": "2 58721  53.1602 290.4918 0001130  90.3051 269.8080 15.30193006131880"}, {"name": "STARLINK-31040", "line1": "1 58722U 24002T   26133.21797328 -.00000939  00000+0 -19601-4 0  9999", "line2": "2 58722  53.1604 290.2905 0001161  96.8865 263.2268 15.30186386131895"}, {"name": "STARLINK-31033", "line1": "1 58723U 24002U   26133.14315935 -.00000776  00000+0 -14091-4 0  9999", "line2": "2 58723  53.1609 290.5335 0001016  98.4279 261.6837 15.30188119131886"}, {"name": "STARLINK-30893", "line1": "1 58724U 24002V   26133.16531905 -.00000058  00000+0  10186-4 0  9992", "line2": "2 58724  53.1620 290.6809 0001237  87.6083 272.5059 15.30191377131871"}, {"name": "STARLINK-30856", "line1": "1 58725U 24002W   26133.13893701 -.00000307  00000+0  17553-5 0  9998", "line2": "2 58725  53.1611 290.5122 0001168  94.1626 265.9508 15.30194618131885"}, {"name": "STARLINK-31115", "line1": "1 58729U 24005B   26132.93020161  .00000823  00000+0  39419-4 0  9990", "line2": "2 58729  42.9992 217.3552 0001348 279.6295  80.4404 15.27578814130258"}, {"name": "STARLINK-31180", "line1": "1 58732U 24005E   26133.22373694  .00005498  00000+0  20926-3 0  9994", "line2": "2 58732  43.0050 215.2826 0002290 269.5109  90.5480 15.27564107130301"}, {"name": "STARLINK-31164", "line1": "1 58733U 24005F   26133.19931419  .00006664  00000+0  25144-3 0  9999", "line2": "2 58733  43.0028 215.0902 0001233 265.8612  94.2098 15.27585561130307"}, {"name": "STARLINK-31152", "line1": "1 58734U 24005G   26133.20316422 -.00001897  00000+0 -59414-4 0  9996", "line2": "2 58734  43.0063 215.1195 0001919 271.9641  88.0991 15.27587637130313"}, {"name": "STARLINK-31157", "line1": "1 58735U 24005H   26133.20702484  .00000647  00000+0  33056-4 0  9998", "line2": "2 58735  43.0059 215.1467 0001595 269.3465  90.7204 15.27578901130317"}, {"name": "STARLINK-31076", "line1": "1 58736U 24005J   26133.21088608 -.00002203  00000+0 -70562-4 0  9990", "line2": "2 58736  43.0046 215.1709 0001193 277.7136  82.3580 15.27569462130355"}, {"name": "STARLINK-31101", "line1": "1 58737U 24005K   26133.22115611  .00000853  00000+0  40534-4 0  9990", "line2": "2 58737  43.0040 215.2475 0002211 265.2819  94.7780 15.27581676130308"}, {"name": "STARLINK-31108", "line1": "1 58738U 24005L   26133.21473079 -.00003534  00000+0 -11900-3 0  9990", "line2": "2 58738  43.0042 215.1976 0001853 259.3879 100.6764 15.27569820130303"}, {"name": "STARLINK-31042", "line1": "1 58739U 24005M   26133.22500863  .00001111  00000+0  49891-4 0  9992", "line2": "2 58739  43.0016 215.2702 0001405 253.2458 106.8240 15.27581960130319"}, {"name": "STARLINK-31159", "line1": "1 58740U 24005N   26133.19802755  .00000995  00000+0  45687-4 0  9993", "line2": "2 58740  43.0007 215.0746 0001094 276.2820  83.7907 15.27572185130401"}, {"name": "STARLINK-31148", "line1": "1 58741U 24005P   26133.20576214  .00001042  00000+0  47415-4 0  9999", "line2": "2 58741  43.0069 215.1463 0002581 274.3474  85.7083 15.27561108130313"}, {"name": "STARLINK-31151", "line1": "1 58742U 24005Q   26133.21344568  .00000482  00000+0  27013-4 0  9995", "line2": "2 58742  42.9981 215.2046 0000397  61.6403 298.4488 15.27582255130403"}, {"name": "STARLINK-31156", "line1": "1 58743U 24005R   26133.21729994  .00000021  00000+0  10281-4 0  9994", "line2": "2 58743  43.0024 215.2336 0001690 270.8980  89.1678 15.27581153130364"}, {"name": "STARLINK-31167", "line1": "1 58744U 24005S   26133.16110993 -.00000774  00000+0 -18605-4 0  9997", "line2": "2 58744  43.0039  70.2054 0001304 263.8170  96.2533 15.27562269132067"}, {"name": "STARLINK-31176", "line1": "1 58745U 24005T   26132.57757532  .00002876  00000+0  11399-3 0  9993", "line2": "2 58745  43.0003 219.0311 0001761 274.6875  85.3776 15.27579666130253"}]